[{"OBJECT_NAME":"STARLINK-30174","OBJECT_ID":"2023-119H","EPOCH":"2026-03-09T22:00:01.999584","MEAN_MOTION":15.18511119,"ECCENTRICITY":0.00012658,"INCLINATION":43.0001,"RA_OF_ASC_NODE":79.6041,"ARG_OF_PERICENTER":257.8733,"MEAN_ANOMALY":298.9214,"EPHEMERIS_TYPE":0,"CLASSIFICATION_TYPE":"U","NORAD_CAT_ID":57609,"ELEMENT_SET_NO":999,"REV_AT_EPOCH":577,"BSTAR":0.055377624,"MEAN_MOTION_DOT":0.01257837,"MEAN_MOTION_DDOT":0},{"OBJECT_NAME":"HERMES-5","OBJECT_ID":"2025-052BQ","EPOCH":"2026-03-09T22:33:51.245280","MEAN_MOTION":15.26210393,"ECCENTRICITY":0.0006071,"INCLINATION":97.4082,"RA_OF_ASC_NODE":324.1247,"ARG_OF_PERICENTER":124.4334,"MEAN_ANOMALY":235.7479,"EPHEMERIS_TYPE":0,"CLASSIFICATION_TYPE":"U","NORAD_CAT_ID":63834,"ELEMENT_SET_NO":999,"REV_AT_EPOCH":5480,"BSTAR":0.00068450239,"MEAN_MOTION_DOT":0.00017673,"MEAN_MOTION_DDOT":0}]
